NORAD_CAT_ID,OBJECT_NAME,OBJECT_TYPE,EPOCH,MEAN_MOTION,ECCENTRICITY,INCLINATION,RA_OF_ASC_NODE,ARG_OF_PERICENTER,MEAN_ANOMALY,BSTAR,MEAN_MOTION_DOT,MEAN_MOTION_DDOT,TLE_LINE0,TLE_LINE1,TLE_LINE2,SEMIMAJOR_AXIS,PERIOD,APOGEE,PERIGEE,DECAYED
53935.0,STARLINK-5000,PAYLOAD,2023-10-07 11:50:32,15.0884991,0.0001698,53.2167,298.3088,98.9709,261.1475,0.00052358,8.057e-05,0.0,0 STARLINK-5000,1 53935U 22119BB  23280.49343348  .00008057  00000-0  52358-3 0  9999,2 53935  53.2167 298.3088 0001698  98.9709 261.1475 15.08849910 58694,6917.85,95.437,540.89,538.54,0.0
53935.0,STARLINK-5000,PAYLOAD,2023-10-07 18:12:05,15.08837244,0.0001845,53.2161,297.1192,87.3629,272.7574,0.00032854,4.944e-05,0.0,0 STARLINK-5000,1 53935U 22119BB  23280.75839839  .00004944  00000-0  32854-3 0  9993,2 53935  53.2161 297.1192 0001845  87.3629 272.7574 15.08837244 58312,6917.889,95.438,541.03,538.477,0.0
53935.0,STARLINK-5000,PAYLOAD,2023-10-08 10:05:57,15.08830026,0.0002056,53.2158,294.1456,87.136,272.9867,-2.6239e-05,-7.06e-06,0.0,0 STARLINK-5000,1 53935U 22119BB  23281.42080638 -.00000706  00000-0 -26239-4 0  9998,2 53935  53.2158 294.1456 0002056  87.1360 272.9867 15.08830026 58412,6917.911,95.438,541.198,538.354,0.0
53935.0,STARLINK-5000,PAYLOAD,2023-10-08 18:02:53,15.08841052,0.0001912,53.216,292.6595,90.3581,269.763,0.00022431,3.284e-05,0.0,0 STARLINK-5000,1 53935U 22119BB  23281.75200386  .00003284  00000-0  22431-3 0  9999,2 53935  53.2160 292.6595 0001912  90.3581 269.7630 15.08841052 58461,6917.877,95.437,541.065,538.419,0.0
53935.0,STARLINK-5000,PAYLOAD,2023-10-09 08:21:20,15.08863989,0.0001839,53.2158,289.9847,90.6014,269.5189,0.00099569,0.00015604,0.0,0 STARLINK-5000,1 53935U 22119BB  23282.34815887  .00015604  00000-0  99569-3 0  9998,2 53935  53.2158 289.9847 0001839  90.6014 269.5189 15.08863989 58559,6917.807,95.436,540.944,538.4,0.0
53935.0,STARLINK-5000,PAYLOAD,2023-10-09 09:56:43,15.08869467,0.0001861,53.2157,289.6874,90.007,270.1135,0.0011244,0.00017667,0.0,0 STARLINK-5000,1 53935U 22119BB  23282.41439745  .00017667  00000-0  11244-2 0  9995,2 53935  53.2157 289.6874 0001861  90.0070 270.1135 15.08869467 58989,6917.79,95.436,540.943,538.368,0.0
53935.0,STARLINK-5000,PAYLOAD,2023-10-09 17:53:40,15.08847829,0.0002677,53.2167,288.196,88.253,271.8769,0.0002213,3.236e-05,0.0,0 STARLINK-5000,1 53935U 22119BB  23282.74560225  .00003236  00000-0  22130-3 0  9993,2 53935  53.2167 288.1960 0002677  88.2530 271.8769 15.08847829 58615,6917.856,95.437,541.573,537.87,0.0
53935.0,STARLINK-5000,PAYLOAD,2023-10-10 09:47:31,15.08853175,0.0001985,53.2153,285.2235,89.2528,270.8691,0.00063317,9.807e-05,0.0,0 STARLINK-5000,1 53935U 22119BB  23283.40799809  .00009807  00000-0  63317-3 0  9991,2 53935  53.2153 285.2235 0001985  89.2528 270.8691 15.08853175 59134,6917.84,95.437,541.078,538.332,0.0
53935.0,STARLINK-5000,PAYLOAD,2023-10-10 17:44:26,15.08839837,0.0001987,53.2167,283.7334,100.5998,259.5218,0.00037768,5.728e-05,0.0,0 STARLINK-5000,1 53935U 22119BB  23283.73920021  .00005728  00000-0  37768-3 0  9998,2 53935  53.2167 283.7334 0001987 100.5998 259.5218 15.08839837 58768,6917.881,95.438,541.12,538.371,0.0
53935.0,STARLINK-5000,PAYLOAD,2023-10-11 11:13:41,15.08847817,0.0002021,53.2155,280.4655,96.6185,263.5038,0.0006168,9.544e-05,0.0,0 STARLINK-5000,1 53935U 22119BB  23284.46784170  .00009544  00000-0  61680-3 0  9992,2 53935  53.2155 280.4655 0002021  96.6185 263.5038 15.08847817 59299,6917.856,95.437,541.12,538.323,0.0
53935.0,STARLINK-5000,PAYLOAD,2023-10-12 04:42:56,15.08849283,0.0001828,53.2159,277.1952,100.0564,260.0634,0.0007948,0.00012387,0.0,0 STARLINK-5000,1 53935U 22119BB  23285.19648452  .00012387  00000-0  79480-3 0  9991,2 53935  53.2159 277.1952 0001828 100.0564 260.0634 15.08849283 58989,6917.852,95.437,540.982,538.452,0.0
53935.0,STARLINK-5000,PAYLOAD,2023-10-12 06:18:19,15.08854623,0.0001769,53.2163,276.8984,96.4238,263.6956,0.00097833,0.00015323,0.0,0 STARLINK-5000,1 53935U 22119BB  23285.26272399  .00015323  00000-0  97833-3 0  9997,2 53935  53.2163 276.8984 0001769  96.4238 263.6956 15.08854623 59414,6917.836,95.437,540.924,538.477,0.0
53935.0,STARLINK-5000,PAYLOAD,2023-10-13 02:58:20,15.08844768,0.0001862,53.2159,273.0301,89.5573,270.5633,0.00070131,0.00010892,0.0,0 STARLINK-5000,1 53935U 22119BB  23286.12384656  .00010892  00000-0  70131-3 0  9991,2 53935  53.2159 273.0301 0001862  89.5573 270.5633 15.08844768 59126,6917.866,95.437,541.019,538.443,0.0
53935.0,STARLINK-5000,PAYLOAD,2023-10-13 06:09:06,15.08849441,0.000177,53.2155,272.4367,89.063,271.0564,0.00075368,0.0001173,0.0,0 STARLINK-5000,1 53935U 22119BB  23286.25632537  .00011730  00000-0  75368-3 0  9998,2 53935  53.2155 272.4367 0001770  89.0630 271.0564 15.08849441 59564,6917.852,95.437,540.941,538.492,0.0
53935.0,STARLINK-5000,PAYLOAD,2023-10-14 04:24:30,15.08853112,0.0001743,53.2159,268.2741,91.568,268.5512,0.00036561,5.537e-05,0.0,0 STARLINK-5000,1 53935U 22119BB  23287.18368084  .00005537  00000-0  36561-3 0  9994,2 53935  53.2159 268.2741 0001743  91.5680 268.5512 15.08853112 59283,6917.84,95.437,540.911,538.5,0.0
53935.0,STARLINK-5000,PAYLOAD,2023-10-14 07:35:16,15.08859946,0.0001814,53.2166,267.68,100.8875,259.2321,0.00065127,0.00010098,0.0,0 STARLINK-5000,1 53935U 22119BB  23287.31615890  .00010098  00000-0  65127-3 0  9997,2 53935  53.2166 267.6800 0001814 100.8875 259.2321 15.08859946 59724,6917.819,95.436,540.939,538.43,0.0
53935.0,STARLINK-5000,PAYLOAD,2023-10-14 15:32:12,15.08842126,0.0001874,53.2155,266.1915,87.6704,272.4503,4.861e-05,4.86e-06,0.0,0 STARLINK-5000,1 53935U 22119BB  23287.64736447  .00000486  00000-0  48610-4 0  9994,2 53935  53.2155 266.1915 0001874  87.6704 272.4503 15.08842126 59352,6917.874,95.437,541.035,538.442,0.0
53935.0,STARLINK-5000,PAYLOAD,2023-10-14 21:53:45,15.08836867,0.0002568,53.2148,265.0037,82.7926,277.3358,-2.228e-05,-6.43e-06,0.0,0 STARLINK-5000,1 53935U 22119BB  23287.91232805 -.00000643  00000-0 -22280-4 0  9995,2 53935  53.2148 265.0037 0002568  82.7926 277.3358 15.08836867 59818,6917.89,95.438,541.531,537.978,0.0
53935.0,STARLINK-5000,PAYLOAD,2023-10-15 04:15:18,15.0882211,0.0001502,53.2157,263.8139,91.8638,268.2526,-0.00026178,-4.45e-05,0.0,0 STARLINK-5000,1 53935U 22119BB  23288.17729371 -.00004450  00000-0 -26178-3 0  9992,2 53935  53.2157 263.8139 0001502  91.8638 268.2526 15.08822110 59435,6917.935,95.439,540.839,538.761,0.0
53935.0,STARLINK-5000,PAYLOAD,2023-10-15 07:26:04,15.08827148,0.00015,53.2156,263.2192,94.2022,265.9141,-0.00013179,-2.384e-05,0.0,0 STARLINK-5000,1 53935U 22119BB  23288.30977319 -.00002384  00000-0 -13179-3 0  9995,2 53935  53.2156 263.2192 0001500  94.2022 265.9141 15.08827148 59870,6917.92,95.438,540.822,538.747,0.0
53935.0,STARLINK-5000,PAYLOAD,2023-10-15 15:23:00,15.08836031,0.0001458,53.2161,261.7325,92.9468,267.1691,0.00013119,1.8e-05,0.0,0 STARLINK-5000,1 53935U 22119BB  23288.64097295  .00001800  00000-0  13119-3 0  9992,2 53935  53.2161 261.7325 0001458  92.9468 267.1691 15.08836031 59503,6917.893,95.438,540.766,538.749,0.0
53935.0,STARLINK-5000,PAYLOAD,2023-10-16 02:30:41,15.08855085,0.0001415,53.216,259.6506,100.0164,260.0988,0.0011169,0.00017539,0.0,0 STARLINK-5000,1 53935U 22119BB  23289.10465220  .00017539  00000-0  11169-2 0  9999,2 53935  53.2160 259.6506 0001415 100.0164 260.0988 15.08855085 59574,6917.834,95.437,540.678,538.72,0.0
53935.0,STARLINK-5000,PAYLOAD,2023-10-16 07:16:51,15.08875125,0.0001387,53.2157,258.7588,97.5528,262.5622,0.0018662,0.00029566,0.0,0 STARLINK-5000,1 53935U 22119BB  23289.30336892  .00029566  00000-0  18662-2 0  9991,2 53935  53.2157 258.7588 0001387  97.5528 262.5622 15.08875125 59605,6917.773,95.435,540.598,538.679,0.0
53935.0,STARLINK-5000,PAYLOAD,2023-10-17 11:53:46,15.08854243,0.0002523,53.2162,253.4049,170.5623,189.5417,0.0013493,0.0002126,0.0,0 STARLINK-5000,1 53935U 22119BB  23290.49568171  .00021260  00000-0  13493-2 0  9990,2 53935  53.2162 253.4049 0002523 170.5623 189.5417 15.08854243 60202,6917.837,95.437,541.447,537.956,0.0
53935.0,STARLINK-5000,PAYLOAD,2023-10-18 02:12:15,15.08847663,0.0001318,53.2161,250.7294,136.287,223.8227,0.0013982,0.00022039,0.0,0 STARLINK-5000,1 53935U 22119BB  23291.09184844  .00022039  00000-0  13982-2 0  9996,2 53935  53.2161 250.7294 0001318 136.2870 223.8227 15.08847663 60295,6917.857,95.437,540.634,538.81,0.0
53935.0,STARLINK-5000,PAYLOAD,2023-10-18 03:47:38,15.0885291,0.0001389,53.2158,250.4315,106.2769,253.8376,0.0012527,0.00019712,0.0,0 STARLINK-5000,1 53935U 22119BB  23291.15808959  .00019712  00000-0  12527-2 0  9991,2 53935  53.2158 250.4315 0001389 106.2769 253.8376 15.08852910 59886,6917.841,95.437,540.667,538.745,0.0
53935.0,STARLINK-5000,PAYLOAD,2023-10-18 16:30:43,15.08851095,0.0001288,53.2165,248.0519,99.9936,260.1202,0.00074253,0.00011553,0.0,0 STARLINK-5000,1 53935U 22119BB  23291.68800857  .00011553  00000-0  74253-3 0  9998,2 53935  53.2165 248.0519 0001288  99.9936 260.1202 15.08851095 59966,6917.846,95.437,540.602,538.82,0.0
53935.0,STARLINK-5000,PAYLOAD,2023-10-18 21:16:53,15.08839141,0.0001215,53.2167,247.1608,98.592,261.521,0.000301,4.506e-05,0.0,0 STARLINK-5000,1 53935U 22119BB  23291.88673037  .00004506  00000-0  30100-3 0  9991,2 53935  53.2167 247.1608 0001215  98.5920 261.5210 15.08839141 60419,6917.883,95.438,540.589,538.907,0.0
53935.0,STARLINK-5000,PAYLOAD,2023-10-19 03:38:25,15.08848691,0.0001229,53.216,245.9719,105.3444,254.7684,0.0005803,8.962e-05,0.0,0 STARLINK-5000,1 53935U 22119BB  23292.15168917  .00008962  00000-0  58030-3 0  9990,2 53935  53.2160 245.9719 0001229 105.3444 254.7684 15.08848691 60031,6917.854,95.437,540.569,538.869,0.0
53935.0,STARLINK-5000,PAYLOAD,2023-10-19 06:49:12,15.08855636,0.0001465,53.2175,245.3747,96.3429,263.773,0.00068613,0.00010653,0.0,0 STARLINK-5000,1 53935U 22119BB  23292.28416770  .00010653  00000-0  68613-3 0  9995,2 53935  53.2175 245.3747 0001465  96.3429 263.7730 15.08855636 60473,6917.833,95.437,540.711,538.684,0.0
